     2.10           NAVIGATION DATA                         RINEX VERSION / TYPE
WaNJOIG 1.3c        SAPOS               2021-01-18 16:43:17 PGM / RUN BY / DATE 
    18                                                      LEAP SECONDS
                                                            END OF HEADER       
23 21 01 02 16  0  0.0  .114139635116E-03  .204636307899E-11  .000000000000E+00
     .100000000000E+01 -.117781250000E+03  .435803867266E-08  .970225202620E+00
    -.612996518612E-05  .108164479025E-02  .820681452751E-05  .515364447212E+04
     .576000000000E+06 -.242143869400E-07  .203113832666E+00  .372529029846E-08
     .963081325986E+00  .222531250000E+03  .228855072938E+01 -.797068915405E-08
    -.528593446610E-10  .100000000000E+01  .213800000000E+04  .000000000000E+00
     .200000000000E+01  .000000000000E+00 -.838190317154E-08  .257000000000E+03
     .568818000000E+06  .000000000000E+00  .000000000000E+00  .000000000000E+00
17 21 01 02 16  0  0.0  .375135336071E-03  .488853402203E-11  .000000000000E+00
     .440000000000E+02  .125875000000E+03  .369229665612E-08 -.306920025777E+01
     .658631324768E-05  .136270108633E-01  .765174627304E-05  .515353142357E+04
     .576000000000E+06  .165775418282E-06 -.180711589096E+01 -.223517417908E-07
     .982923584633E+00  .241062500000E+03 -.159310821791E+01 -.756674375668E-08
     .226438003480E-09  .100000000000E+01  .213800000000E+04  .000000000000E+00
     .200000000000E+01  .000000000000E+00 -.111758708954E-07  .440000000000E+02
     .568818000000E+06  .000000000000E+00  .000000000000E+00  .000000000000E+00
14 21 01 02 16  0  0.0  .782636925578E-04  .750333128963E-11  .000000000000E+00
     .121000000000E+03  .189062500000E+02  .438982571100E-08  .963357249891E+00
     .804662704468E-06  .236634514295E-03  .105630606413E-04  .515373900604E+04
     .576000000000E+06  .540167093277E-07 -.286715829786E+01 -.391155481339E-07
     .959360456757E+00  .177812500000E+03  .189464341925E+01 -.786747056887E-08
    -.656455915452E-09  .100000000000E+01  .213800000000E+04  .000000000000E+00
     .200000000000E+01  .000000000000E+00 -.232830643654E-08  .633000000000E+03
     .568818000000E+06  .000000000000E+00  .000000000000E+00  .000000000000E+00
28 21 01 02 16  0  0.0  .635056756437E-03 -.511590769747E-11  .000000000000E+00
     .116000000000E+03  .342812500000E+02  .389516224914E-08 -.223320560090E+01
     .181607902050E-05  .181354160886E-01  .108480453491E-04  .515367016029E+04
     .576000000000E+06  .245869159698E-06 -.281990833630E+01  .197440385818E-06
     .975044597516E+00  .176500000000E+03 -.135968051071E+01 -.737637868435E-08
    -.609311094539E-09  .100000000000E+01  .213800000000E+04  .000000000000E+00
     .200000000000E+01  .000000000000E+00 -.111758708954E-07  .116000000000E+03
     .568818000000E+06  .000000000000E+00  .000000000000E+00  .000000000000E+00
13 21 01 02 16  0  0.0  .815778039396E-04  .409272615798E-11  .000000000000E+00
     .330000000000E+02  .228125000000E+01  .445161399902E-08  .265852285207E+01
     .819563865662E-07  .491368351504E-02  .943429768085E-05  .515368187332E+04
     .576000000000E+06  .931322574615E-08  .140515747555E+01 -.987201929092E-07
     .967602723006E+00  .201343750000E+03  .104429794272E+01 -.774246536190E-08
     .486448833975E-09  .100000000000E+01  .213800000000E+04  .000000000000E+00
     .200000000000E+01  .000000000000E+00 -.116415321827E-07  .330000000000E+02
     .568818000000E+06  .000000000000E+00  .000000000000E+00  .000000000000E+00
20 21 01 02 16  0  0.0  .525342300534E-03 -.227373675443E-12  .000000000000E+00
     .150000000000E+02 -.119031250000E+03  .500842290663E-08  .556695002799E+00
    -.624358654022E-05  .586491730064E-02  .677816569805E-05  .515367108917E+04
     .576000000000E+06  .745058059692E-07  .877633302093E-01 -.223517417908E-07
     .936876397737E+00  .235812500000E+03  .281287105958E+01 -.838534928346E-08
    -.850035407387E-10  .100000000000E+01  .213800000000E+04  .000000000000E+00
     .200000000000E+01  .000000000000E+00 -.838190317154E-08  .150000000000E+02
     .568818000000E+06  .000000000000E+00  .000000000000E+00  .000000000000E+00
24 21 01 02 16  0  0.0  .423798337579E-05 -.568434188608E-12  .000000000000E+00
     .182000000000E+03  .975000000000E+01  .563880630749E-08  .146105216383E+01
     .581145286560E-06  .107847800246E-01  .572204589844E-05  .515361466408E+04
     .576000000000E+06 -.189989805222E-06  .225638522919E+01  .189989805222E-06
     .935214906083E+00  .257937500000E+03  .716519173077E+00 -.864250285208E-08
    -.957182727646E-10  .100000000000E+01  .213800000000E+04  .000000000000E+00
     .280000000000E+01  .000000000000E+00  .279396772385E-08  .182000000000E+03
     .568818000000E+06  .000000000000E+00  .000000000000E+00  .000000000000E+00
01 21 01 02 16  0  0.0  .786670483649E-03 -.591171556152E-11  .000000000000E+00
     .830000000000E+02 -.116562500000E+02  .432696594979E-08  .113256520286E+01
    -.718981027603E-06  .102242375724E-01  .121071934700E-05  .515369135094E+04
     .576000000000E+06 -.111758708954E-06 -.809865978832E+00  .558793544769E-07
     .982726867501E+00  .368250000000E+03  .821978529448E+00 -.843963725905E-08
    -.482162941165E-10  .100000000000E+01  .213800000000E+04  .000000000000E+00
     .280000000000E+01  .000000000000E+00  .512227416039E-08  .830000000000E+02
     .569178000000E+06  .000000000000E+00  .000000000000E+00  .000000000000E+00
12 21 01 02 15 59 44.0  .184341333807E-04 -.522959453519E-11  .000000000000E+00
     .500000000000E+01  .247187500000E+02  .410445668138E-08 -.188254681152E+00
     .129267573357E-05  .816435716115E-02  .102315098047E-04  .515357995796E+04
     .575984000000E+06 -.800937414169E-07 -.284231342407E+01  .141561031342E-06
     .975840332787E+00  .191312500000E+03  .116957767102E+01 -.783854079240E-08
    -.495734935064E-09  .100000000000E+01  .213800000000E+04  .000000000000E+00
     .200000000000E+01  .000000000000E+00 -.125728547573E-07  .500000000000E+01
     .572346000000E+06  .000000000000E+00  .000000000000E+00  .000000000000E+00
25 21 01 02 16  0  0.0  .517959706485E-04  .750333128963E-11  .000000000000E+00
     .400000000000E+02  .210625000000E+02  .443161316591E-08 -.511591510708E+00
     .106915831566E-05  .958462094422E-02  .962428748608E-05  .515368889618E+04
     .576000000000E+06 -.428408384323E-07 -.291394001154E+01  .141561031342E-06
     .963162500384E+00  .194625000000E+03  .930967980290E+00 -.805997858760E-08
    -.561809115890E-09  .100000000000E+01  .213800000000E+04  .000000000000E+00
     .200000000000E+01  .000000000000E+00  .558793544769E-08  .400000000000E+02
     .571338000000E+06  .000000000000E+00  .000000000000E+00  .000000000000E+00
32 21 01 02 16  0  0.0  .120252370834E-04  .227373675443E-11  .000000000000E+00
     .620000000000E+02 -.156250000000E+01  .462233539597E-08 -.221293343452E+01
    -.614672899246E-07  .437242444605E-02  .101998448372E-04  .515362143898E+04
     .576000000000E+06  .186264514923E-08  .126816610787E+01 -.447034835815E-07
     .956790074581E+00  .179906250000E+03 -.246319850519E+01 -.786782772661E-08
     .560023327219E-09  .100000000000E+01  .213800000000E+04  .000000000000E+00
     .200000000000E+01  .000000000000E+00  .465661287308E-09  .620000000000E+02
     .571728000000E+06  .000000000000E+00  .000000000000E+00  .000000000000E+00
02 21 01 02 16  0  0.0 -.561515334994E-03 -.432009983342E-11  .000000000000E+00
     .540000000000E+02  .000000000000E+00  .472091093060E-08  .137177128433E+01
    -.368803739548E-06  .203201699769E-01  .173225998878E-05  .515358439827E+04
     .576000000000E+06 -.145286321640E-06 -.890703054637E+00 -.474974513054E-06
     .961499124492E+00  .344937500000E+03 -.156692965730E+01 -.854892752572E-08
     .120719314158E-09  .100000000000E+01  .213800000000E+04  .000000000000E+00
     .200000000000E+01  .000000000000E+00 -.176951289177E-07  .540000000000E+02
     .574902000000E+06  .000000000000E+00  .000000000000E+00  .000000000000E+00
06 21 01 02 16  0  0.0 -.461144372821E-05 -.113686837722E-12  .000000000000E+00
     .106000000000E+03 -.113125000000E+02  .418553148704E-08  .153190012485E+01
    -.558793544769E-06  .219557841774E-02  .145845115185E-05  .515368301773E+04
     .576000000000E+06 -.111758708954E-07 -.818121162647E+00 -.931322574615E-08
     .982222693266E+00  .360500000000E+03 -.113369328971E+01 -.823355724642E-08
     .689314426998E-10  .100000000000E+01  .213800000000E+04  .000000000000E+00
     .200000000000E+01  .000000000000E+00  .419095158577E-08  .106000000000E+03
     .573252000000E+06  .000000000000E+00  .000000000000E+00  .000000000000E+00
32 21 01 02 18  0  0.0  .120420008898E-04  .227373675443E-11  .000000000000E+00
     .680000000000E+02 -.459375000000E+01  .465590822298E-08 -.116270141184E+01
    -.193715095520E-06  .437284330837E-02  .994279980659E-05  .515362149239E+04
     .583200000000E+06  .912696123123E-07  .126810969774E+01  .745058059692E-08
     .956793739191E+00  .185531250000E+03 -.246321651664E+01 -.792961601462E-08
     .498592196938E-09  .100000000000E+01  .213800000000E+04  .000000000000E+00
     .200000000000E+01  .000000000000E+00  .465661287308E-09  .680000000000E+02
     .576018000000E+06  .000000000000E+00  .000000000000E+00  .000000000000E+00
10 21 01 02 18  0  0.0 -.302516855299E-04 -.864019966684E-11  .000000000000E+00
     .630000000000E+02 -.105750000000E+03  .421731852539E-08  .169102628718E+00
    -.550784170628E-05  .633682287298E-02  .796839594841E-05  .515367683792E+04
     .583200000000E+06  .204890966415E-07  .225757242964E+00  .670552253723E-07
     .968129155540E+00  .230593750000E+03 -.262663434664E+01 -.802533428739E-08
    -.314298806093E-10  .100000000000E+01  .213800000000E+04  .000000000000E+00
     .200000000000E+01  .000000000000E+00  .232830643654E-08  .630000000000E+02
     .576018000000E+06  .000000000000E+00  .000000000000E+00  .000000000000E+00
